[{"OBJECT_NAME":"STARLINK-31256","OBJECT_ID":"2024-044K","EPOCH":"2026-02-19T19:16:52.243680","MEAN_MOTION":15.27569482,"ECCENTRICITY":9.097e-5,"INCLINATION":43.0003,"RA_OF_ASC_NODE":207.7356,"ARG_OF_PERICENTER":264.0709,"MEAN_ANOMALY":96.0039,"EPHEMERIS_TYPE":0,"CLASSIFICATION_TYPE":"U","NORAD_CAT_ID":59161,"ELEMENT_SET_NO":999,"REV_AT_EPOCH":11086,"BSTAR":-4.3953229e-5,"MEAN_MOTION_DOT":-1.471e-5,"MEAN_MOTION_DDOT":0},{"OBJECT_NAME":"STARLINK-31272","OBJECT_ID":"2024-044L","EPOCH":"2026-02-19T19:22:24.562272","MEAN_MOTION":15.27579769,"ECCENTRICITY":9.687e-5,"INCLINATION":42.9998,"RA_OF_ASC_NODE":207.7627,"ARG_OF_PERICENTER":243.8982,"MEAN_ANOMALY":116.177,"EPHEMERIS_TYPE":0,"CLASSIFICATION_TYPE":"U","NORAD_CAT_ID":59162,"ELEMENT_SET_NO":999,"REV_AT_EPOCH":11083,"BSTAR":4.4859159e-5,"MEAN_MOTION_DOT":9.73e-6,"MEAN_MOTION_DDOT":0},{"OBJECT_NAME":"STARLINK-31278","OBJECT_ID":"2024-044M","EPOCH":"2026-02-19T11:37:10.207488","MEAN_MOTION":15.27587563,"ECCENTRICITY":0.0002045,"INCLINATION":42.9996,"RA_OF_ASC_NODE":209.6325,"ARG_OF_PERICENTER":173.612,"MEAN_ANOMALY":186.4758,"EPHEMERIS_TYPE":0,"CLASSIFICATION_TYPE":"U","NORAD_CAT_ID":59163,"ELEMENT_SET_NO":999,"REV_AT_EPOCH":11078,"BSTAR":-6.9770929e-5,"MEAN_MOTION_DOT":-2.182e-5,"MEAN_MOTION_DDOT":0},{"OBJECT_NAME":"STARLINK-31309","OBJECT_ID":"2024-044N","EPOCH":"2026-02-19T19:33:31.210848","MEAN_MOTION":15.27579463,"ECCENTRICITY":0.00016661,"INCLINATION":43.0045,"RA_OF_ASC_NODE":207.8286,"ARG_OF_PERICENTER":287.6307,"MEAN_ANOMALY":72.4362,"EPHEMERIS_TYPE":0,"CLASSIFICATION_TYPE":"U","NORAD_CAT_ID":59164,"ELEMENT_SET_NO":999,"REV_AT_EPOCH":11086,"BSTAR":1.2662467e-5,"MEAN_MOTION_DOT":8.6e-7,"MEAN_MOTION_DDOT":0},{"OBJECT_NAME":"STARLINK-31325","OBJECT_ID":"2024-044P","EPOCH":"2026-02-19T11:46:26.117184","MEAN_MOTION":15.27576555,"ECCENTRICITY":0.00012473,"INCLINATION":43.0037,"RA_OF_ASC_NODE":209.6926,"ARG_OF_PERICENTER":260.9789,"MEAN_ANOMALY":99.0921,"EPHEMERIS_TYPE":0,"CLASSIFICATION_TYPE":"U","NORAD_CAT_ID":59165,"ELEMENT_SET_NO":999,"REV_AT_EPOCH":11078,"BSTAR":2.6304766e-5,"MEAN_MOTION_DOT":4.62e-6,"MEAN_MOTION_DDOT":0},{"OBJECT_NAME":"STARLINK-31342","OBJECT_ID":"2024-044Q","EPOCH":"2026-02-19T11:51:59.549472","MEAN_MOTION":15.27575956,"ECCENTRICITY":0.00016279,"INCLINATION":43.0057,"RA_OF_ASC_NODE":209.7231,"ARG_OF_PERICENTER":272.2382,"MEAN_ANOMALY":87.8284,"EPHEMERIS_TYPE":0,"CLASSIFICATION_TYPE":"U","NORAD_CAT_ID":59166,"ELEMENT_SET_NO":999,"REV_AT_EPOCH":11081,"BSTAR":-4.321763e-5,"MEAN_MOTION_DOT":-1.451e-5,"MEAN_MOTION_DDOT":0},{"OBJECT_NAME":"STARLINK-31298","OBJECT_ID":"2024-044R","EPOCH":"2026-02-19T10:23:22.769952","MEAN_MOTION":15.27580431,"ECCENTRICITY":0.00015284,"INCLINATION":43.0015,"RA_OF_ASC_NODE":210.1129,"ARG_OF_PERICENTER":266.3959,"MEAN_ANOMALY":93.6717,"EPHEMERIS_TYPE":0,"CLASSIFICATION_TYPE":"U","NORAD_CAT_ID":59167,"ELEMENT_SET_NO":999,"REV_AT_EPOCH":11077,"BSTAR":3.4469924e-5,"MEAN_MOTION_DOT":6.86e-6,"MEAN_MOTION_DDOT":0},{"OBJECT_NAME":"STARLINK-31322","OBJECT_ID":"2024-044S","EPOCH":"2026-02-19T18:51:10.601568","MEAN_MOTION":15.27567187,"ECCENTRICITY":8.588e-5,"INCLINATION":42.9963,"RA_OF_ASC_NODE":208.4522,"ARG_OF_PERICENTER":238.7839,"MEAN_ANOMALY":121.2928,"EPHEMERIS_TYPE":0,"CLASSIFICATION_TYPE":"U","NORAD_CAT_ID":59168,"ELEMENT_SET_NO":999,"REV_AT_EPOCH":11085,"BSTAR":-4.2657506e-5,"MEAN_MOTION_DOT":-1.435e-5,"MEAN_MOTION_DDOT":0},{"OBJECT_NAME":"STARLINK-31329","OBJECT_ID":"2024-044T","EPOCH":"2026-02-19T10:49:16.935744","MEAN_MOTION":15.275786,"ECCENTRICITY":0.00015798,"INCLINATION":42.9992,"RA_OF_ASC_NODE":210.2424,"ARG_OF_PERICENTER":249.032,"MEAN_ANOMALY":111.0362,"EPHEMERIS_TYPE":0,"CLASSIFICATION_TYPE":"U","NORAD_CAT_ID":59169,"ELEMENT_SET_NO":999,"REV_AT_EPOCH":11077,"BSTAR":1.472794e-5,"MEAN_MOTION_DOT":1.43e-6,"MEAN_MOTION_DDOT":0},{"OBJECT_NAME":"STARLINK-31340","OBJECT_ID":"2024-044U","EPOCH":"2026-02-19T17:05:45.248064","MEAN_MOTION":15.27583356,"ECCENTRICITY":0.00027741,"INCLINATION":43.0062,"RA_OF_ASC_NODE":169.0075,"ARG_OF_PERICENTER":297.6063,"MEAN_ANOMALY":62.4507,"EPHEMERIS_TYPE":0,"CLASSIFICATION_TYPE":"U","NORAD_CAT_ID":59170,"ELEMENT_SET_NO":999,"REV_AT_EPOCH":11127,"BSTAR":3.2875582e-5,"MEAN_MOTION_DOT":6.42e-6,"MEAN_MOTION_DDOT":0},{"OBJECT_NAME":"STARLINK-31344","OBJECT_ID":"2024-044V","EPOCH":"2026-02-19T18:45:36.551520","MEAN_MOTION":15.27581306,"ECCENTRICITY":0.00019639,"INCLINATION":42.999,"RA_OF_ASC_NODE":208.424,"ARG_OF_PERICENTER":267.7837,"MEAN_ANOMALY":92.279,"EPHEMERIS_TYPE":0,"CLASSIFICATION_TYPE":"U","NORAD_CAT_ID":59171,"ELEMENT_SET_NO":999,"REV_AT_EPOCH":11085,"BSTAR":4.298824e-5,"MEAN_MOTION_DOT":9.21e-6,"MEAN_MOTION_DDOT":0},{"OBJECT_NAME":"STARLINK-31348","OBJECT_ID":"2024-044W","EPOCH":"2026-02-19T16:30:08.544960","MEAN_MOTION":15.27600673,"ECCENTRICITY":0.00022909,"INCLINATION":43.0043,"RA_OF_ASC_NODE":161.877,"ARG_OF_PERICENTER":265.7945,"MEAN_ANOMALY":94.2645,"EPHEMERIS_TYPE":0,"CLASSIFICATION_TYPE":"U","NORAD_CAT_ID":59172,"ELEMENT_SET_NO":999,"REV_AT_EPOCH":11135,"BSTAR":0.00096877325,"MEAN_MOTION_DOT":0.0002651,"MEAN_MOTION_DDOT":0},{"OBJECT_NAME":"STARLINK-31289","OBJECT_ID":"2024-044X","EPOCH":"2026-02-19T12:03:04.995360","MEAN_MOTION":15.27580446,"ECCENTRICITY":0.00013309,"INCLINATION":42.9992,"RA_OF_ASC_NODE":209.7668,"ARG_OF_PERICENTER":235.4879,"MEAN_ANOMALY":124.5847,"EPHEMERIS_TYPE":0,"CLASSIFICATION_TYPE":"U","NORAD_CAT_ID":59173,"ELEMENT_SET_NO":999,"REV_AT_EPOCH":11081,"BSTAR":-6.07056e-6,"MEAN_MOTION_DOT":-4.29e-6,"MEAN_MOTION_DDOT":0},{"OBJECT_NAME":"STARLINK-31283","OBJECT_ID":"2024-044Y","EPOCH":"2026-02-19T22:00:03.000096","MEAN_MOTION":15.2759058,"ECCENTRICITY":0.00015046,"INCLINATION":43.0019,"RA_OF_ASC_NODE":160.4858,"ARG_OF_PERICENTER":273.0082,"MEAN_ANOMALY":310.8396,"EPHEMERIS_TYPE":0,"CLASSIFICATION_TYPE":"U","NORAD_CAT_ID":59174,"ELEMENT_SET_NO":999,"REV_AT_EPOCH":585,"BSTAR":-0.00041938978,"MEAN_MOTION_DOT":-0.00011788,"MEAN_MOTION_DDOT":0},{"OBJECT_NAME":"STARLINK-31439","OBJECT_ID":"2024-045A","EPOCH":"2026-02-19T17:38:45.958560","MEAN_MOTION":15.27568644,"ECCENTRICITY":0.00012945,"INCLINATION":43.0002,"RA_OF_ASC_NODE":190.6398,"ARG_OF_PERICENTER":259.7829,"MEAN_ANOMALY":100.2876,"EPHEMERIS_TYPE":0,"CLASSIFICATION_TYPE":"U","NORAD_CAT_ID":59178,"ELEMENT_SET_NO":999,"REV_AT_EPOCH":4678,"BSTAR":-6.992676e-6,"MEAN_MOTION_DOT":-4.54e-6,"MEAN_MOTION_DDOT":0},{"OBJECT_NAME":"STARLINK-31410","OBJECT_ID":"2024-045B","EPOCH":"2026-02-19T11:19:35.566752","MEAN_MOTION":15.27576067,"ECCENTRICITY":0.00022756,"INCLINATION":43.0044,"RA_OF_ASC_NODE":195.5685,"ARG_OF_PERICENTER":291.0031,"MEAN_ANOMALY":69.0577,"EPHEMERIS_TYPE":0,"CLASSIFICATION_TYPE":"U","NORAD_CAT_ID":59179,"ELEMENT_SET_NO":999,"REV_AT_EPOCH":11037,"BSTAR":2.0583822e-5,"MEAN_MOTION_DOT":3.04e-6,"MEAN_MOTION_DDOT":0}]
