STARLINK-31256          
1 59161U 24044K   26050.80338245 -.00001471  00000+0 -43953-4 0  9994
2 59161  43.0003 207.7356 0000909 264.0709  96.0039 15.27569482110862
STARLINK-31272          
1 59162U 24044L   26050.80722873  .00000973  00000+0  44859-4 0  9999
2 59162  42.9998 207.7627 0000968 243.8982 116.1770 15.27579769110830
STARLINK-31278          
1 59163U 24044M   26050.48414592 -.00002182  00000+0 -69771-4 0  9996
2 59163  42.9996 209.6325 0002045 173.6120 186.4758 15.27587563110788
STARLINK-31309          
1 59164U 24044N   26050.81494457  .00000086  00000+0  12662-4 0  9998
2 59164  43.0045 207.8286 0001666 287.6307  72.4362 15.27579463110867
STARLINK-31325          
1 59165U 24044P   26050.49058006  .00000462  00000+0  26305-4 0  9996
2 59165  43.0037 209.6926 0001247 260.9789  99.0921 15.27576555110789
STARLINK-31342          
1 59166U 24044Q   26050.49443923 -.00001451  00000+0 -43218-4 0  9996
2 59166  43.0057 209.7231 0001627 272.2382  87.8284 15.27575956110814
STARLINK-31298          
1 59167U 24044R   26050.43290243  .00000686  00000+0  34470-4 0  9993
2 59167  43.0015 210.1129 0001528 266.3959  93.6717 15.27580431110770
STARLINK-31322          
1 59168U 24044S   26050.78553937 -.00001435  00000+0 -42658-4 0  9996
2 59168  42.9963 208.4522 0000858 238.7839 121.2928 15.27567187110857
STARLINK-31329          
1 59169U 24044T   26050.45089046  .00000143  00000+0  14728-4 0  9996
2 59169  42.9992 210.2424 0001579 249.0320 111.0362 15.27578600110775
STARLINK-31340          
1 59170U 24044U   26050.71232926  .00000642  00000+0  32876-4 0  9992
2 59170  43.0062 169.0075 0002774 297.6063  62.4507 15.27583356111271
STARLINK-31344          
1 59171U 24044V   26050.78167305  .00000921  00000+0  42988-4 0  9993
2 59171  42.9990 208.4240 0001963 267.7837  92.2790 15.27581306110859
STARLINK-31348          
1 59172U 24044W   26050.68759890  .00026510  00000+0  96877-3 0  9996
2 59172  43.0043 161.8770 0002290 265.7945  94.2645 15.27600673111359
STARLINK-31289          
1 59173U 24044X   26050.50214115 -.00000429  00000+0 -60706-5 0  9991
2 59173  42.9992 209.7668 0001330 235.4879 124.5847 15.27580446110819
STARLINK-31283          
1 59174U 24044Y   26050.91670139 -.00011788  00000+0 -41939-3 0  9994
2 59174  43.0019 160.4858 0001504 273.0082 310.8396 15.27590580  5859
STARLINK-31439          
1 59178U 24045A   26050.73525415 -.00000454  00000+0 -69927-5 0  9992
2 59178  43.0002 190.6398 0001294 259.7829 100.2876 15.27568644 46782
STARLINK-31410          
1 59179U 24045B   26050.47193943  .00000304  00000+0  20584-4 0  9998
2 59179  43.0044 195.5685 0002275 291.0031  69.0577 15.27576067110371
